[{"OBJECT_NAME":"STARLINK-5672","OBJECT_ID":"2023-015V","EPOCH":"2026-03-09T01:49:28.914240","MEAN_MOTION":15.02534256,"ECCENTRICITY":0.00017007,"INCLINATION":43.0077,"RA_OF_ASC_NODE":329.1543,"ARG_OF_PERICENTER":265.8854,"MEAN_ANOMALY":94.1794,"EPHEMERIS_TYPE":0,"CLASSIFICATION_TYPE":"U","NORAD_CAT_ID":55468,"ELEMENT_SET_NO":999,"REV_AT_EPOCH":17066,"BSTAR":4.153315e-6,"MEAN_MOTION_DOT":-1.48e-6,"MEAN_MOTION_DDOT":0},{"OBJECT_NAME":"CZ-4C R\/B","OBJECT_ID":"2018-031F","EPOCH":"2026-03-09T18:17:36.260736","MEAN_MOTION":15.22605712,"ECCENTRICITY":0.00804945,"INCLINATION":98.1311,"RA_OF_ASC_NODE":341.6719,"ARG_OF_PERICENTER":21.712,"MEAN_ANOMALY":338.7495,"EPHEMERIS_TYPE":0,"CLASSIFICATION_TYPE":"U","NORAD_CAT_ID":43264,"ELEMENT_SET_NO":999,"REV_AT_EPOCH":43612,"BSTAR":0.00044368098,"MEAN_MOTION_DOT":0.00011203,"MEAN_MOTION_DDOT":0}]
